STARLINK-11307 [DTC]    
1 61210U 24171L   24283.58334491 -.00021563  00000+0 -12801-3 0  9994
2 61210  53.1584 201.3318 0001245  85.4617  30.8890 15.76740703  4247
STARLINK-11298 [DTC]    
1 61211U 24171M   24283.58334491  .00169628  00000+0  10232-2 0  9993
2 61211  53.1588 201.2749 0000738 104.9025  39.1920 15.76654506  4246
STARLINK-11310 [DTC]    
1 61212U 24171N   24283.58334491 -.00006570  00000+0 -36194-4 0  9999
2 61212  53.1592 201.2183 0000690  99.2059  72.6283 15.76722281  4244
STARLINK-32386          
1 61213U 24171P   24283.58334491 -.01340156  00000+0 -21954-1 0  9997
2 61213  53.1591 202.5700 0001019 117.9123 111.7375 15.54758722  4241
STARLINK-32392          
1 61214U 24171Q   24283.58334491 -.01339564  00000+0 -21945-1 0  9999
2 61214  53.1591 202.5619 0000815 103.6208 129.8628 15.54758196  4246
STARLINK-32436          
1 61215U 24171R   24283.58334491 -.01340785  00000+0 -21966-1 0  9990
2 61215  53.1591 202.5659 0000892  92.3896 139.1775 15.54758997  4249
STARLINK-32425          
1 61216U 24171S   24283.58334491 -.01341689  00000+0 -21981-1 0  9992
2 61216  53.1591 202.5578 0001048 107.0212 128.3783 15.54759466  4241
STARLINK-32342          
1 61217U 24171T   24283.58334491 -.01339515  00000+0 -21944-1 0  9997
2 61217  53.1592 202.5540 0000833 106.5392 130.7774 15.54758187  4242
STARLINK-32423          
1 61218U 24171U   24283.58334491 -.01339386  00000+0 -21942-1 0  9992
2 61218  53.1591 202.5500 0000792 104.4125 134.8207 15.54758101  4245
STARLINK-32248          
1 61219U 24171V   24283.58334491 -.01341507  00000+0 -21978-1 0  9990
2 61219  53.1592 202.5460 0001019 108.5873 132.5616 15.54759349  4244
KINEIS-3C               
1 61220U 24172A   24283.21181595  .00015498  00000+0  21902-2 0  9990
2 61220  98.0169   9.5720 0000430  11.6837 348.4383 14.77227341  2690
KINEIS-3D               
1 61221U 24172B   24283.21095110  .00017473  00000+0  24633-2 0  9997
2 61221  98.0171   9.5738 0000468 321.7062  38.4115 14.77303180  2694
KINEIS-3E               
1 61222U 24172C   24283.20989242  .00017482  00000+0  24599-2 0  9996
2 61222  98.0169   9.5756 0000636 144.9686 215.1566 14.77384709  2696
KINEIS-3A               
1 61223U 24172D   24283.20640327  .00017637  00000+0  24650-2 0  9995
2 61223  98.0173   9.5800 0001574 235.9834 124.1226 14.77669602  2690
KINEIS-3B               
1 61224U 24172E   24283.20458361  .00017744  00000+0  24712-2 0  9999
2 61224  98.0170   9.5822 0002188 208.6870 151.4220 14.77819040  2680
2024-172G               
1 61226U 24172G   24283.52453598  .00011863  00000+0  11955-2 0  9994
2 61226  98.0134  10.2543 0055995 349.4418  10.5618 14.90119505  2711
2024-173A               
1 61227U 24173A   24283.50752413  .00044214  00000+0  17496-2 0  9994
2 61227  97.4056 356.1513 0011170 214.8329 145.2179 15.25255072  2335
2024-173B               
1 61228U 24173B   24283.50484574  .00050160  00000+0  19609-2 0  9990
2 61228  97.4024 356.1490 0012198 219.5817 140.4532 15.25617553  2336
2024-173C               
1 61229U 24173C   24283.50599880  .00040825  00000+0  16123-2 0  9993
2 61229  97.4033 356.1486 0011629 219.5538 140.4852 15.25335714  2331
2024-173D               
1 61230U 24173D   24283.50516377  .00043419  00000+0  17066-2 0  9994
2 61230  97.4040 356.1511 0011746 220.2956 139.7413 15.25478709  2339
2024-173E               
1 61231U 24173E   24283.50935029  .00008936  00000+0  36642-3 0  9991
2 61231  97.3969 356.1319 0012214 216.7776 143.2625 15.24420217  2274
2024-173F               
1 61232U 24173F   24283.50432297  .00043402  00000+0  17015-2 0  9990
2 61232  97.4045 356.1531 0011829 221.8745 138.1589 15.25565303  2292
2024-173G               
1 61233U 24173G   24283.50177798  .00057362  00000+0  22121-2 0  9997
2 61233  97.4031 356.1534 0011955 224.8220 135.2054 15.26036854  2292
2024-173H               
1 61234U 24173H   24283.50078104  .00064187  00000+0  24562-2 0  9993
2 61234  97.4045 356.1573 0012014 225.5588 134.4668 15.26259945  2293
2024-173K               
1 61236U 24173K   24283.55259767  .00053094  00000+0  19572-2 0  9996
2 61236  97.4400 356.3236 0020519 244.6944 115.2169 15.27423035  2360
2024-173L               
1 61237U 24173L   24283.52188203  .00040724  00000+0  10002-2 0  9995
2 61237  97.6768 357.0744 0086179 259.9159  99.2354 15.36719246  2407
2024-174A               
1 61238U 24174A   24283.54137642  .00011509  00000+0  58928-3 0  9999
2 61238  97.4572 288.5853 0013733 233.1444 126.8531 15.16683469  2213
2024-174B               
1 61239U 24174B   24283.54206160  .00014159  00000+0  72410-3 0  9998
2 61239  97.4564 288.5829 0014178 229.4386 130.5614 15.16671294  2201
2024-174C               
1 61240U 24174C   24283.54609344  .00012251  00000+0  63589-3 0  9999
2 61240  97.4515 288.5691 0013710 223.9909 136.0234 15.16187994  2171
2024-174D               
1 61241U 24174D   24283.54375099  .00014106  00000+0  72512-3 0  9994
2 61241  97.4538 288.5760 0013883 226.4955 133.5125 15.16493161  2171
