OBJECT_NAME,OBJECT_ID,EPOCH,MEAN_MOTION,ECCENTRICITY,INCLINATION,RA_OF_ASC_NODE,ARG_OF_PERICENTER,MEAN_ANOMALY,EPHEMERIS_TYPE,CLASSIFICATION_TYPE,NORAD_CAT_ID,ELEMENT_SET_NO,REV_AT_EPOCH,BSTAR,MEAN_MOTION_DOT,MEAN_MOTION_DDOT
STARLINK-11307 [DTC],2024-171L,2024-10-09T14:00:01.000224,15.76740703,0.0001245,53.1584,201.3318,85.4617,30.8890,0,U,61210,999,424,-1.2801E-04,-2.1563E-04,0
STARLINK-11298 [DTC],2024-171M,2024-10-09T14:00:01.000224,15.76654506,0.0000738,53.1588,201.2749,104.9025,39.1920,0,U,61211,999,424,1.0232E-03,1.69628E-03,0
STARLINK-11310 [DTC],2024-171N,2024-10-09T14:00:01.000224,15.76722281,0.000069,53.1592,201.2183,99.2059,72.6283,0,U,61212,999,424,-3.6194E-05,-6.57E-05,0
STARLINK-32386,2024-171P,2024-10-09T14:00:01.000224,15.54758722,0.0001019,53.1591,202.5700,117.9123,111.7375,0,U,61213,999,424,-2.1954E-02,-1.340156E-02,0
STARLINK-32392,2024-171Q,2024-10-09T14:00:01.000224,15.54758196,0.0000815,53.1591,202.5619,103.6208,129.8628,0,U,61214,999,424,-2.1945E-02,-1.339564E-02,0
STARLINK-32436,2024-171R,2024-10-09T14:00:01.000224,15.54758997,0.0000892,53.1591,202.5659,92.3896,139.1775,0,U,61215,999,424,-2.1966E-02,-1.340785E-02,0
STARLINK-32425,2024-171S,2024-10-09T14:00:01.000224,15.54759466,0.0001048,53.1591,202.5578,107.0212,128.3783,0,U,61216,999,424,-2.1981E-02,-1.341689E-02,0
STARLINK-32342,2024-171T,2024-10-09T14:00:01.000224,15.54758187,0.0000833,53.1592,202.5540,106.5392,130.7774,0,U,61217,999,424,-2.1944E-02,-1.339515E-02,0
STARLINK-32423,2024-171U,2024-10-09T14:00:01.000224,15.54758101,0.0000792,53.1591,202.5500,104.4125,134.8207,0,U,61218,999,424,-2.1942E-02,-1.339386E-02,0
STARLINK-32248,2024-171V,2024-10-09T14:00:01.000224,15.54759349,0.0001019,53.1592,202.5460,108.5873,132.5616,0,U,61219,999,424,-2.1978E-02,-1.341507E-02,0
KINEIS-3C,2024-172A,2024-10-09T05:05:00.898080,14.77227341,0.000043,98.0169,9.5720,11.6837,348.4383,0,U,61220,999,269,2.1902E-03,1.5498E-04,0
KINEIS-3D,2024-172B,2024-10-09T05:03:46.175040,14.77303180,0.0000468,98.0171,9.5738,321.7062,38.4115,0,U,61221,999,269,2.4633E-03,1.7473E-04,0
KINEIS-3E,2024-172C,2024-10-09T05:02:14.705088,14.77384709,0.0000636,98.0169,9.5756,144.9686,215.1566,0,U,61222,999,269,2.4599E-03,1.7482E-04,0
KINEIS-3A,2024-172D,2024-10-09T04:57:13.242528,14.77669602,0.0001574,98.0173,9.5800,235.9834,124.1226,0,U,61223,999,269,2.465E-03,1.7637E-04,0
KINEIS-3B,2024-172E,2024-10-09T04:54:36.023904,14.77819040,0.0002188,98.0170,9.5822,208.6870,151.4220,0,U,61224,999,268,2.4712E-03,1.7744E-04,0
2024-172G,2024-172G,2024-10-09T12:35:19.908672,14.90119505,0.0055995,98.0134,10.2543,349.4418,10.5618,0,U,61226,999,271,1.1955E-03,1.1863E-04,0
2024-173A,2024-173A,2024-10-09T12:10:50.084832,15.25255072,0.001117,97.4056,356.1513,214.8329,145.2179,0,U,61227,999,233,1.7496E-03,4.4214E-04,0
2024-173B,2024-173B,2024-10-09T12:06:58.671936,15.25617553,0.0012198,97.4024,356.1490,219.5817,140.4532,0,U,61228,999,233,1.9609E-03,5.016E-04,0
2024-173C,2024-173C,2024-10-09T12:08:38.296320,15.25335714,0.0011629,97.4033,356.1486,219.5538,140.4852,0,U,61229,999,233,1.6123E-03,4.0825E-04,0
2024-173D,2024-173D,2024-10-09T12:07:26.149728,15.25478709,0.0011746,97.4040,356.1511,220.2956,139.7413,0,U,61230,999,233,1.7066E-03,4.3419E-04,0
2024-173E,2024-173E,2024-10-09T12:13:27.865056,15.24420217,0.0012214,97.3969,356.1319,216.7776,143.2625,0,U,61231,999,227,3.6642E-04,8.936E-05,0
2024-173F,2024-173F,2024-10-09T12:06:13.504608,15.25565303,0.0011829,97.4045,356.1531,221.8745,138.1589,0,U,61232,999,229,1.7015E-03,4.3402E-04,0
2024-173G,2024-173G,2024-10-09T12:02:33.617472,15.26036854,0.0011955,97.4031,356.1534,224.8220,135.2054,0,U,61233,999,229,2.2121E-03,5.7362E-04,0
2024-173H,2024-173H,2024-10-09T12:01:07.481856,15.26259945,0.0012014,97.4045,356.1573,225.5588,134.4668,0,U,61234,999,229,2.4562E-03,6.4187E-04,0
2024-173K,2024-173K,2024-10-09T13:15:44.438688,15.27423035,0.0020519,97.4400,356.3236,244.6944,115.2169,0,U,61236,999,236,1.9572E-03,5.3094E-04,0
2024-173L,2024-173L,2024-10-09T12:31:30.607392,15.36719246,0.0086179,97.6768,357.0744,259.9159,99.2354,0,U,61237,999,240,1.0002E-03,4.0724E-04,0
2024-174A,2024-174A,2024-10-09T12:59:34.922688,15.16683469,0.0013733,97.4572,288.5853,233.1444,126.8531,0,U,61238,999,221,5.8928E-04,1.1509E-04,0
2024-174B,2024-174B,2024-10-09T13:00:34.122240,15.16671294,0.0014178,97.4564,288.5829,229.4386,130.5614,0,U,61239,999,220,7.241E-04,1.4159E-04,0
2024-174C,2024-174C,2024-10-09T13:06:22.473216,15.16187994,0.001371,97.4515,288.5691,223.9909,136.0234,0,U,61240,999,217,6.3589E-04,1.2251E-04,0
2024-174D,2024-174D,2024-10-09T13:03:00.085536,15.16493161,0.0013883,97.4538,288.5760,226.4955,133.5125,0,U,61241,999,217,7.2512E-04,1.4106E-04,0
